0 GLOBALSTAR M064
1 26084U 00008D   13282.80446259 -.00000068  00000-0  19875-3 0  4962
2 26084 052.0034 130.2933 0001361 106.2148 002.0412 12.62269628656910
0 GLOBALSTAR M064
1 26084U 00008D   13283.99352223 -.00000053  00000-0  28070-3 0  4972
2 26084 052.0033 126.6734 0001347 107.9812 006.1920 12.62269663657062
0 GLOBALSTAR M064
1 26084U 00008D   13286.50678765 -.00000080  00000-0  13227-3 0  4994
2 26084 052.0035 119.0221 0001337 113.0872 267.3452 12.62270147657378
0 GLOBALSTAR M064
1 26084U 00008D   13287.78490257 -.00000097  00000-0  39224-4 0  5000
2 26084 052.0036 115.1310 0001316 115.4156 315.8138 12.62270355657543
0 GLOBALSTAR M064
1 26084U 00008D   13289.06984256 -.00000121  00000-0 -95270-4 0  5013
2 26084 052.0039 111.2192 0001309 118.8315 034.2247 12.62270450657704
0 GLOBALSTAR M064
1 26084U 00008D   13290.46525331 -.00000115  00000-0 -64596-4 0  5025
2 26084 052.0042 106.9711 0001287 121.5286 255.5985 12.62270476657872
0 GLOBALSTAR M064
1 26084U 00008D   13291.49857730 -.00000112  00000-0 -45928-4 0  5036
2 26084 052.0044 103.8254 0001277 124.8523 270.1608 12.62270407658006
0 GLOBALSTAR M064
1 26084U 00008D   13292.77439094 -.00000079  00000-0  13938-3 0  5044
2 26084 052.0046 099.9415 0001261 129.5250 305.8264 12.62270396658173
0 GLOBALSTAR M064
1 26084U 00008D   13293.81770921 -.00000067  00000-0  20515-3 0  5054
2 26084 052.0048 096.7654 0001240 130.8713 007.8040 12.62270345658301
0 GLOBALSTAR M064
1 26084U 00008D   13294.93294895 -.00000067  00000-0  20481-3 0  5062
2 26084 052.0050 093.3705 0001209 134.5272 034.4537 12.62270355658443
0 GLOBALSTAR M064
1 26084U 00008D   13295.95884731 -.00000076  00000-0  15648-3 0  5079
2 26084 052.0051 090.2474 0001179 138.5358 014.5710 12.62270395658578
